#aV2013 12 25  0  0  0.00000000     288 DD+AD WGS84 FIT  NGA
## 1772 259200.00000000   300.00000000 56651 0.0000000000000
+   31     1  2  3  4  5  6  7  8  9 10 11 12 13 14 15 16 17
+         18 19 20 21 22 23 24 25 26 27 28 29 31 32  0  0  0
+          0  0  0  0  0  0  0  0  0  0  0  0  0  0  0  0  0
+          0  0  0  0  0  0  0  0  0  0  0  0  0  0  0  0  0
+          0  0  0  0  0  0  0  0  0  0  0  0  0  0  0  0  0
++         2  2  2  2  2  2  2  2  2  2  2  2  2  2  2  2  2
++         2  2  2  2  2  2  2  2  2  2  2  2  2  2  0  0  0
++         0  0  0  0  0  0  0  0  0  0  0  0  0  0  0  0  0
++         0  0  0  0  0  0  0  0  0  0  0  0  0  0  0  0  0
++         0  0  0  0  0  0  0  0  0  0  0  0  0  0  0  0  0
%c cc cc ccc ccc cccc cccc cccc cccc ccccc ccccc ccccc ccccc
%c cc cc ccc ccc cccc cccc cccc cccc ccccc ccccc ccccc ccccc
%f  0.0000000  0.000000000  0.00000000000  0.000000000000000
%f  0.0000000  0.000000000  0.00000000000  0.000000000000000
%i    0    0    0    0      0      0      0      0         0
%i    0    0    0    0      0      0      0      0         0
/*      NGA, ST. LOUIS,MO.                                  
/*   EPHEMERIS COMPUTED FROM  1 DAYS OF DATA                
/*   EPOCHA SMOOTHER                                       
/* CCCCCCCCCCCCCCCCCCCCCCCCCCCCCCCCCCCCCCCCCCCCCCCCCCCCCCCCC
*  2013 12 25 11  0  0.00000000
P  1  15364.942965  -1518.512217  21585.978722     95.877922                    
V  1   8062.973305  26274.892093  -3771.715320      0.027157                    
P  2 -14372.028245 -20500.281515  -9345.662827    468.896302                    
V  2  -1308.281253 -12346.977545  27845.240096      0.021794                    
P  3  23361.284907   8770.121250  -9881.834267    303.730655                    
V  3 -11938.389161   2161.450634 -27659.955207      0.049048                    
P  4  -5764.567273 -25516.800057   3428.586152      4.495467                    
V  4   5050.572393   3359.636624  30992.592867      0.002774                    
P  5 -12891.308638  -8814.679608 -21534.007892   -394.423632                    
V  5  18111.537163 -20407.286296  -2335.817756      0.010648                    
P  6  18115.216093  13236.643496 -14461.035907    207.956392                    
V  6 -18473.394716   -425.164092 -23051.893373      0.160648                    
P  7   8224.521370 -16784.816885 -18671.082834    295.381776                    
V  7   8213.168789  22523.088651 -16880.610346      0.041827                    
P  8   1961.340358 -24079.937889 -10152.753228     10.797889                    
V  8   4471.770520  12638.554907 -29292.156315      0.002342                    
P  9   -236.859133 -24385.500563 -10865.518286    293.089642                    
V  9   5725.315417  11843.639455 -28223.043833      0.028127                    
P 10   3408.572929 -20861.506350 -16145.511431   -107.318227                    
V 10  15508.178048 -13061.476798  20994.927773     -0.015919                    
P 11  20000.638791   5243.338949  16307.789888   -449.789071                    
V 11  10223.444931  19477.184666 -18038.853104     -0.033332                    
P 12 -20741.201016   7422.630027  14633.977767    176.127146                    
V 12  11854.592817 -14558.141959  24311.497436      0.023085                    
P 13  17358.144033  -7606.358523 -18800.624025     46.549831                    
V 13  22005.245236   8307.776856  16937.381735     -0.037719                    
P 14    949.641730  15672.335108  21655.965665    206.752606                    
V 14 -25959.487209  -7193.971893   6269.983805     -0.011854                    
P 15 -26431.548112  -3439.665527   1776.989182   -154.073284                    
V 15  -1680.011455  -3616.440991 -30966.307802     -0.020145                    
P 16  12207.647945   8445.643432 -22077.115549   -237.702923                    
V 16 -19763.889303  19633.666756  -3088.739488      0.012612                    
P 17  -1511.563046 -15760.899843  21597.477517    -53.210015                    
V 17  26043.501673   6348.574338   6292.737091     -0.034835                    
P 18 -15998.233029  20851.936644   2648.717253    292.363616                    
V 18  -5033.952176   -599.378390 -30939.372354      0.020777                    
P 19  25785.203403   7156.215102   1314.012951   -427.740737                    
V 19   1012.617914   2759.557137 -31500.802302     -0.025548                    
P 20  20656.583135 -11347.590925  11980.236789    147.448948                    
V 20  -7200.878307  14244.772674  25582.861076      0.030835                    
P 21  -6850.312777  18793.984097 -16627.653152   -334.652223                    
V 21  -9615.323173 -20583.826082 -19126.611655     -0.017447                    
P 22  -7006.618304  22233.819816  12786.149878    202.868891                    
V 22 -13154.140427   9791.160276 -24764.347571      0.021865                    
P 23  24806.419877  -1527.099351  -9817.630194     18.476762                    
V 23  11641.633775   5124.449920  27946.568746     -0.033186                    
P 24 -16437.178990  -3576.505543  20565.670246    -20.415288                    
V 24  -7397.736344 -25064.926342 -10193.909356     -0.005852                    
P 25 -19300.503631  17768.553455   3687.366470      4.780159                    
V 25   1361.971429  -5170.435604  31682.346075      0.025765                    
P 26 -21071.480023 -13639.465026  -9801.742951    212.527768                    
V 26  11371.937033   1849.122366 -28646.477696     -0.105968                    
P 27  20429.973095  12518.249098 -11493.809377    -10.423438                    
V 27 -14743.963522   -733.987132 -26994.211811     -0.025465                    
P 28  10732.406401 -21458.569129  11815.557308    319.339745                    
V 28  11254.810195  -8647.639064 -27489.701825      0.030290                    
P 29 -20157.131900   6074.427007 -16130.095722    498.047955                    
V 29 -19390.294017  -7051.816108  21557.180390      0.030661                    
P 31   6676.089722  25518.583010   1107.792699    331.571546                    
V 31  -2719.659462   -467.947665  32322.910508      0.004926                    
P 32  18495.057196   1311.454866  18889.164246   -511.527899                    
V 32 -16358.782500  17728.463592  15388.052162      0.054704                    
EOF
